******** Week 359 almanac for PRN-18 ********
ID:                         18
Health:                     000
Eccentricity:               0.5741119385E-002
Time of Applicability(s):  405504.0000
Orbital Inclination(rad):   0.9721866896
Rate of Right Ascen(r/s):  -0.7851755629E-008
SQRT(A)  (m 1/2):           5153.595215
Right Ascen at Week(rad):  -0.3077077826E+001
Argument of Perigee(rad):  -2.862226889
Mean Anom(rad):            -0.5705670752E+000
Af0(s):                    -0.4148483276E-003
Af1(s/s):                   0.1091393642E-010
week:                        359

******** Week 359 almanac for PRN-19 ********
ID:                         19
Health:                     000
Eccentricity:               0.1112174988E-001
Time of Applicability(s):  405504.0000
Orbital Inclination(rad):   0.9583149493
Rate of Right Ascen(r/s):  -0.7783181344E-008
SQRT(A)  (m 1/2):           5153.670410
Right Ascen at Week(rad):   0.2239779355E+001
Argument of Perigee(rad):   2.928926591
Mean Anom(rad):            -0.3046168637E+001
Af0(s):                     0.6914138794E-003
Af1(s/s):                   0.0000000000E+000
week:                        359

******** Week 359 almanac for PRN-20 ********
ID:                         20
Health:                     063
Eccentricity:               0.3166198730E-003
Time of Applicability(s):  405504.0000
Orbital Inclination(rad):   0.9600706382
Rate of Right Ascen(r/s):  -0.7840326581E-008
SQRT(A)  (m 1/2):           5153.649414
Right Ascen at Week(rad):  -0.1023431460E+001
Argument of Perigee(rad):   1.168455187
Mean Anom(rad):             0.1091078290E+001
Af0(s):                     0.1907348633E-004
Af1(s/s):                   0.2546585165E-010
week:                        359

******** Week 359 almanac for PRN-21 ********
ID:                         21
Health:                     000
Eccentricity:               0.7290840149E-003
Time of Applicability(s):  405504.0000
Orbital Inclination(rad):   0.9625453807
Rate of Right Ascen(r/s):  -0.8194627053E-008
SQRT(A)  (m 1/2):           5153.711426
Right Ascen at Week(rad):  -0.2029406398E+001
Argument of Perigee(rad):  -0.357442990
Mean Anom(rad):            -0.2258751132E+001
Af0(s):                     0.4034042358E-003
Af1(s/s):                   0.3637978807E-011
week:                        359

******** Week 359 almanac for PRN-22 ********
ID:                         22
Health:                     000
Eccentricity:               0.1210165024E-001
Time of Applicability(s):  405504.0000
Orbital Inclination(rad):   0.9575060141
Rate of Right Ascen(r/s):  -0.7908900866E-008
SQRT(A)  (m 1/2):           5153.563965
Right Ascen at Week(rad):   0.1181675660E+001
Argument of Perigee(rad):  -0.994322901
Mean Anom(rad):             0.2064501078E+001
Af0(s):                    -0.4100799561E-004
Af1(s/s):                   0.3637978807E-011
week:                        359

******** Week 359 almanac for PRN-23 ********
ID:                         23
Health:                     000
Eccentricity:               0.6022930145E-002
Time of Applicability(s):  405504.0000
Orbital Inclination(rad):   0.9876763003
Rate of Right Ascen(r/s):  -0.7931758961E-008
SQRT(A)  (m 1/2):           5153.658203
Right Ascen at Week(rad):  -0.2070363985E+001
Argument of Perigee(rad):  -2.737672967
Mean Anom(rad):            -0.1701452466E+001
Af0(s):                     0.6170272827E-003
Af1(s/s):                   0.3637978807E-011
week:                        359

******** Week 359 almanac for PRN-24 ********
ID:                         24
Health:                     000
Eccentricity:               0.1789188385E-001
Time of Applicability(s):  405504.0000
Orbital Inclination(rad):   0.9353292059
Rate of Right Ascen(r/s):  -0.7966046104E-008
SQRT(A)  (m 1/2):           5153.593262
Right Ascen at Week(rad):  -0.6466762660E-001
Argument of Perigee(rad):   1.134373550
Mean Anom(rad):            -0.3579444550E+000
Af0(s):                    -0.1049041748E-003
Af1(s/s):                   0.1455191523E-010
week:                        359

******** Week 359 almanac for PRN-25 ********
ID:                         25
Health:                     000
Eccentricity:               0.1294088364E-001
Time of Applicability(s):  405504.0000
Orbital Inclination(rad):   0.9473433914
Rate of Right Ascen(r/s):  -0.8023191341E-008
SQRT(A)  (m 1/2):           5153.661621
Right Ascen at Week(rad):   0.1067534531E+001
Argument of Perigee(rad):   1.157142079
Mean Anom(rad):            -0.2132235542E+001
Af0(s):                     0.4405975342E-003
Af1(s/s):                  -0.3637978807E-011
week:                        359

******** Week 359 almanac for PRN-26 ********
ID:                         26
Health:                     000
Eccentricity:               0.1099967957E-001
Time of Applicability(s):  405504.0000
Orbital Inclination(rad):   0.9281566473
Rate of Right Ascen(r/s):  -0.8240343243E-008
SQRT(A)  (m 1/2):           5153.646484
Right Ascen at Week(rad):   0.9930596890E+000
Argument of Perigee(rad):   0.709279235
Mean Anom(rad):            -0.2953415231E+001
Af0(s):                    -0.3328323364E-003
Af1(s/s):                  -0.7275957614E-011
week:                        359

******** Week 359 almanac for PRN-27 ********
ID:                         27
Health:                     000
Eccentricity:               0.1434612274E-001
Time of Applicability(s):  405504.0000
Orbital Inclination(rad):   0.9524846239
Rate of Right Ascen(r/s):  -0.7851755629E-008
SQRT(A)  (m 1/2):           5153.615723
Right Ascen at Week(rad):   0.2123227525E+001
Argument of Perigee(rad):   0.880473888
Mean Anom(rad):             0.1589164399E+001
Af0(s):                    -0.5245208740E-004
Af1(s/s):                  -0.1091393642E-010
week:                        359

******** Week 359 almanac for PRN-28 ********
ID:                         28
Health:                     000
Eccentricity:               0.4153251648E-003
Time of Applicability(s):  405504.0000
Orbital Inclination(rad):   0.9622757356
Rate of Right Ascen(r/s):  -0.7657461821E-008
SQRT(A)  (m 1/2):           5153.740234
Right Ascen at Week(rad):   0.1793401806E-001
Argument of Perigee(rad):   0.042096837
Mean Anom(rad):            -0.1045460338E+001
Af0(s):                    -0.5884170532E-003
Af1(s/s):                   0.7275957614E-011
week:                        359

******** Week 359 almanac for PRN-29 ********
ID:                         29
Health:                     000
Eccentricity:               0.3366947174E-002
Time of Applicability(s):  405504.0000
Orbital Inclination(rad):   0.9617664061
Rate of Right Ascen(r/s):  -0.7726036106E-008
SQRT(A)  (m 1/2):           5153.714844
Right Ascen at Week(rad):   0.2212593515E+001
Argument of Perigee(rad):   2.738737316
Mean Anom(rad):             0.1458802996E+001
Af0(s):                    -0.3690719604E-003
Af1(s/s):                   0.7275957614E-011
week:                        359

******** Week 359 almanac for PRN-30 ********
ID:                         30
Health:                     000
Eccentricity:               0.8041381836E-002
Time of Applicability(s):  405504.0000
Orbital Inclination(rad):   0.9365875495
Rate of Right Ascen(r/s):  -0.7920329914E-008
SQRT(A)  (m 1/2):           5153.704102
Right Ascen at Week(rad):   0.3477709715E-001
Argument of Perigee(rad):  -2.321660448
Mean Anom(rad):            -0.1502621442E+001
Af0(s):                     0.1344680786E-003
Af1(s/s):                   0.1455191523E-010
week:                        359

******** Week 359 almanac for PRN-31 ********
ID:                         31
Health:                     000
Eccentricity:               0.1080751419E-001
Time of Applicability(s):  405504.0000
Orbital Inclination(rad):   0.9550971849
Rate of Right Ascen(r/s):  -0.7748894201E-008
SQRT(A)  (m 1/2):           5153.722168
Right Ascen at Week(rad):   0.6790823592E-001
Argument of Perigee(rad):   0.938971137
Mean Anom(rad):            -0.2443810409E+001
Af0(s):                    -0.1649856567E-003
Af1(s/s):                   0.3637978807E-011
week:                        359

******** Week 359 almanac for PRN-32 ********
ID:                         32
Health:                     000
Eccentricity:               0.9324550629E-002
Time of Applicability(s):  405504.0000
Orbital Inclination(rad):   0.9677045895
Rate of Right Ascen(r/s):  -0.7760323249E-008
SQRT(A)  (m 1/2):           5153.686523
Right Ascen at Week(rad):  -0.1012068168E+001
Argument of Perigee(rad):  -2.001070448
Mean Anom(rad):             0.2169906830E+001
Af0(s):                    -0.7438659668E-004
Af1(s/s):                   0.1818989404E-010
week:                        359

